{"type": "FeatureCollection", "features": [{"type": "Feature", "properties": {"code": "32410", "name": "양양군", "name_eng": "Yangyang-gun", "base_year": "2013"}, "geometry": {"type": "Polygon", "coordinates": [[[128.6113, 38.1583], [128.6119, 38.1484], [128.6382, 38.1137], [128.6694, 38.0892], [128.6802, 38.0631], [128.7286, 38.0213], [128.7383, 38.0025], [128.7927, 37.9318], [128.8123, 37.9156], [128.8052, 37.9101], [128.7486, 37.906], [128.6788, 37.8872], [128.6505, 37.8881], [128.6217, 37.8691], [128.5901, 37.8591], [128.5417, 37.8884], [128.5147, 37.8773], [128.484, 37.8903], [128.4758, 37.8973], [128.4773, 37.9226], [128.4656, 37.9328], [128.4797, 37.96], [128.4991, 37.9645], [128.4984, 37.9808], [128.5144, 38.0022], [128.4858, 38.0507], [128.4745, 38.046], [128.417, 38.0603], [128.4064, 38.0936], [128.4298, 38.1068], [128.4676, 38.1167], [128.4941, 38.1353], [128.532, 38.1341], [128.5368, 38.1456], [128.5617, 38.1464], [128.5729, 38.158], [128.6113, 38.1583]]]}}, {"type": "Feature", "properties": {"code": "32400", "name": "고성군", "name_eng": "Goseong-gun", "base_year": "2013"}, "geometry": {"type": "Polygon", "coordinates": [[[128.2062, 38.375], [128.2453, 38.3998], [128.2512, 38.4099], [128.2845, 38.4326], [128.3037, 38.4693], [128.3175, 38.5618], [128.3131, 38.5893], [128.3235, 38.6069], [128.3533, 38.611], [128.3994, 38.5645], [128.4084, 38.5389], [128.4255, 38.5198], [128.4255, 38.5034], [128.4423, 38.4748], [128.4704, 38.4487], [128.4604, 38.4273], [128.4741, 38.4077], [128.518, 38.369], [128.5286, 38.3357], [128.5533, 38.3115], [128.5711, 38.2661], [128.5922, 38.2395], [128.5871, 38.2284], [128.5765, 38.2192], [128.5355, 38.2132], [128.503, 38.2004], [128.4888, 38.1865], [128.4441, 38.1996], [128.4416, 38.2363], [128.4198, 38.2516], [128.3903, 38.2455], [128.3698, 38.2346], [128.3609, 38.2609], [128.3213, 38.2634], [128.3227, 38.2974], [128.3108, 38.3257], [128.2924, 38.3318], [128.2674, 38.3217], [128.2462, 38.3576], [128.2062, 38.375]]]}}, {"type": "Feature", "properties": {"code": "32390", "name": "인제군", "name_eng": "Inje-gun", "base_year": "2013"}, "geometry": {"type": "Polygon", "coordinates": [[[128.1254, 38.338], [128.2062, 38.375], [128.2462, 38.3576], [128.2674, 38.3217], [128.2924, 38.3318], [128.3108, 38.3257], [128.3227, 38.2974], [128.3213, 38.2634], [128.3609, 38.2609], [128.3698, 38.2346], [128.3903, 38.2455], [128.4198, 38.2516], [128.4416, 38.2363], [128.4441, 38.1996], [128.4221, 38.1748], [128.4445, 38.1484], [128.4673, 38.1351], [128.4676, 38.1167], [128.4298, 38.1068], [128.4064, 38.0936], [128.417, 38.0603], [128.4745, 38.046], [128.4858, 38.0507], [128.5144, 38.0022], [128.4984, 37.9808], [128.4991, 37.9645], [128.4797, 37.96], [128.4656, 37.9328], [128.4773, 37.9226], [128.4758, 37.8973], [128.484, 37.8903], [128.438, 37.8613], [128.4157, 37.8818], [128.4032, 37.8591], [128.3685, 37.8444], [128.3667, 37.8305], [128.3482, 37.8227], [128.3097, 37.8406], [128.2959, 37.8671], [128.2637, 37.8536], [128.2564, 37.8336], [128.2111, 37.8096], [128.1828, 37.831], [128.172, 37.8486], [128.1756, 37.8822], [128.163, 37.8926], [128.1355, 37.8911], [128.0822, 37.9004], [128.0419, 37.9246], [128.0316, 37.9412], [127.9956, 37.9399], [127.9795, 37.9544], [127.9854, 37.9878], [128.0211, 37.9979], [128.0314, 38.0118], [128.0586, 38.0284], [128.0648, 38.0447], [128.0978, 38.0254], [128.1202, 38.0451], [128.115, 38.0684], [128.0914, 38.0895], [128.1057, 38.1116], [128.0903, 38.1353], [128.1073, 38.1825], [128.1003, 38.1904], [128.121, 38.2087], [128.1236, 38.2354], [128.1528, 38.2528], [128.1622, 38.2717], [128.1671, 38.3116], [128.1587, 38.3224], [128.1256, 38.3242], [128.1254, 38.338]]]}}, {"type": "Feature", "properties": {"code": "32380", "name": "양구군", "name_eng": "Yanggu-gun", "base_year": "2013"}, "geometry": {"type": "Polygon", "coordinates": [[[127.8264, 38.3242], [127.8578, 38.3298], [127.8866, 38.3409], [127.9276, 38.3345], [127.9796, 38.3177], [128.0657, 38.3108], [128.1254, 38.338], [128.1256, 38.3242], [128.1587, 38.3224], [128.1671, 38.3116], [128.1622, 38.2717], [128.1528, 38.2528], [128.1236, 38.2354], [128.121, 38.2087], [128.1003, 38.1904], [128.1073, 38.1825], [128.0903, 38.1353], [128.1057, 38.1116], [128.0914, 38.0895], [128.115, 38.0684], [128.1202, 38.0451], [128.0978, 38.0254], [128.0648, 38.0447], [128.0586, 38.0284], [128.0314, 38.0118], [127.9861, 38.0106], [127.988, 38.0247], [127.9569, 38.037], [127.9385, 38.0116], [127.9099, 38.0227], [127.9058, 38.0482], [127.9165, 38.0552], [127.9025, 38.0903], [127.8873, 38.0997], [127.8888, 38.1141], [127.8757, 38.1336], [127.8834, 38.1637], [127.8781, 38.189], [127.8551, 38.2055], [127.8571, 38.2497], [127.8264, 38.3242]]]}}, {"type": "Feature", "properties": {"code": "32370", "name": "화천군", "name_eng": "Hwacheon-gun", "base_year": "2013"}, "geometry": {"type": "Polygon", "coordinates": [[[127.6123, 38.3378], [127.6405, 38.3264], [127.6924, 38.3304], [127.7021, 38.3407], [127.7323, 38.335], [127.7489, 38.3455], [127.7797, 38.3511], [127.8045, 38.3226], [127.8264, 38.3242], [127.8571, 38.2497], [127.8551, 38.2055], [127.8781, 38.189], [127.8834, 38.1637], [127.8757, 38.1336], [127.8888, 38.1141], [127.8873, 38.0997], [127.9025, 38.0903], [127.9165, 38.0552], [127.9058, 38.0482], [127.8552, 38.0485], [127.8598, 38.0156], [127.8293, 37.998], [127.7961, 37.9904], [127.7719, 38.0245], [127.7404, 38.0359], [127.7154, 38.0215], [127.7022, 38.0354], [127.6793, 38.0335], [127.6546, 38.0216], [127.6548, 38.0507], [127.6284, 38.048], [127.5998, 38.0777], [127.5698, 38.0816], [127.5808, 38.0371], [127.5657, 38.0192], [127.5465, 38.0168], [127.5419, 37.9984], [127.5036, 37.9968], [127.4743, 38.0033], [127.4601, 38.0135], [127.4478, 38.0482], [127.4465, 38.0951], [127.4327, 38.1125], [127.4418, 38.1214], [127.4845, 38.1224], [127.5049, 38.1456], [127.4927, 38.1567], [127.5064, 38.172], [127.5146, 38.1967], [127.5386, 38.2082], [127.5439, 38.2265], [127.5698, 38.2367], [127.5811, 38.2551], [127.5993, 38.2672], [127.5856, 38.29], [127.6123, 38.3378]]]}}, {"type": "Feature", "properties": {"code": "32360", "name": "철원군", "name_eng": "Gongju-si", "base_year": "2013"}, "geometry": {"type": "Polygon", "coordinates": [[[127.1114, 38.2893], [127.1395, 38.3071], [127.1454, 38.3264], [127.1614, 38.3316], [127.1842, 38.3145], [127.1989, 38.3162], [127.2457, 38.336], [127.2962, 38.3247], [127.3128, 38.3142], [127.3405, 38.3293], [127.3502, 38.3263], [127.3901, 38.3373], [127.4267, 38.3316], [127.4513, 38.3145], [127.4775, 38.3154], [127.4889, 38.301], [127.5106, 38.3011], [127.5438, 38.3225], [127.5902, 38.3374], [127.6123, 38.3378], [127.5856, 38.29], [127.5993, 38.2672], [127.5811, 38.2551], [127.5698, 38.2367], [127.5439, 38.2265], [127.5386, 38.2082], [127.5146, 38.1967], [127.5064, 38.172], [127.4927, 38.1567], [127.5049, 38.1456], [127.4845, 38.1224], [127.4418, 38.1214], [127.4327, 38.1125], [127.3858, 38.1117], [127.3233, 38.0925], [127.3134, 38.1132], [127.2853, 38.1137], [127.2779, 38.1345], [127.2894, 38.1496], [127.2915, 38.1742], [127.2732, 38.1791], [127.258, 38.1605], [127.2254, 38.1441], [127.1921, 38.158], [127.1815, 38.1819], [127.1686, 38.1968], [127.1646, 38.2295], [127.1506, 38.2398], [127.1324, 38.2299], [127.1122, 38.2394], [127.1161, 38.2626], [127.1114, 38.2893]]]}}, {"type": "Feature", "properties": {"code": "32350", "name": "정선군", "name_eng": "Jeongseon-gun", "base_year": "2013"}, "geometry": {"type": "Polygon", "coordinates": [[[128.9754, 37.5312], [128.9644, 37.5102], [128.9889, 37.4901], [128.9901, 37.4722], [128.9599, 37.4439], [128.9399, 37.448], [128.9001, 37.427], [128.8979, 37.4065], [128.8711, 37.3955], [128.8602, 37.3781], [128.8481, 37.3368], [128.869, 37.3362], [128.8758, 37.3194], [128.8621, 37.2952], [128.8822, 37.2772], [128.8822, 37.262], [128.897, 37.2505], [128.9104, 37.2135], [128.9199, 37.1584], [128.9014, 37.1451], [128.8845, 37.1665], [128.8427, 37.1647], [128.7983, 37.1938], [128.7524, 37.2093], [128.7338, 37.1945], [128.6967, 37.1817], [128.6452, 37.1799], [128.6345, 37.1968], [128.58, 37.2198], [128.5771, 37.2662], [128.5983, 37.2775], [128.582, 37.2961], [128.5868, 37.3077], [128.5724, 37.323], [128.5684, 37.3424], [128.5549, 37.358], [128.5412, 37.3968], [128.5149, 37.4026], [128.5091, 37.4162], [128.5213, 37.4316], [128.5155, 37.4519], [128.5265, 37.4607], [128.5655, 37.4585], [128.5586, 37.4858], [128.5795, 37.492], [128.592, 37.5577], [128.6174, 37.5725], [128.6293, 37.5527], [128.6763, 37.5531], [128.7068, 37.5326], [128.7478, 37.5438], [128.7832, 37.5406], [128.8044, 37.5289], [128.7996, 37.5158], [128.8166, 37.5035], [128.8502, 37.5122], [128.8626, 37.5411], [128.8609, 37.5576], [128.8763, 37.5868], [128.8987, 37.5839], [128.9079, 37.5497], [128.9413, 37.5345], [128.9614, 37.5431], [128.9754, 37.5312]]]}}, {"type": "Feature", "properties": {"code": "32340", "name": "평창군", "name_eng": "Pyeongchang-gun", "base_year": "2013"}, "geometry": {"type": "Polygon", "coordinates": [[[128.5848, 37.8182], [128.6022, 37.803], [128.6039, 37.7672], [128.6792, 37.7705], [128.7101, 37.766], [128.7268, 37.7463], [128.7444, 37.7388], [128.7669, 37.669], [128.7356, 37.6512], [128.7308, 37.6334], [128.7388, 37.6072], [128.7198, 37.6009], [128.7142, 37.5858], [128.6863, 37.5891], [128.6763, 37.5531], [128.6293, 37.5527], [128.6174, 37.5725], [128.592, 37.5577], [128.5795, 37.492], [128.5586, 37.4858], [128.5655, 37.4585], [128.5265, 37.4607], [128.5155, 37.4519], [128.5213, 37.4316], [128.5091, 37.4162], [128.5149, 37.4026], [128.5412, 37.3968], [128.5549, 37.358], [128.5684, 37.3424], [128.5724, 37.323], [128.5868, 37.3077], [128.582, 37.2961], [128.5983, 37.2775], [128.5771, 37.2662], [128.5598, 37.2853], [128.5187, 37.2838], [128.5005, 37.2993], [128.4669, 37.3037], [128.4655, 37.3206], [128.45, 37.3344], [128.4229, 37.3411], [128.4109, 37.3353], [128.3992, 37.2944], [128.374, 37.2887], [128.3602, 37.3057], [128.3335, 37.3011], [128.326, 37.3149], [128.3192, 37.3754], [128.2964, 37.3978], [128.2679, 37.4052], [128.2498, 37.443], [128.2478, 37.4745], [128.2691, 37.4843], [128.2788, 37.4982], [128.3014, 37.5088], [128.3043, 37.5351], [128.297, 37.5662], [128.2868, 37.5756], [128.2784, 37.6169], [128.257, 37.6267], [128.2752, 37.6377], [128.2794, 37.6645], [128.3074, 37.6881], [128.3259, 37.6865], [128.3619, 37.6963], [128.3821, 37.6886], [128.4177, 37.6853], [128.4461, 37.6978], [128.4556, 37.7256], [128.4805, 37.7317], [128.5247, 37.7271], [128.5233, 37.756], [128.5447, 37.7856], [128.5447, 37.7953], [128.5715, 37.804], [128.5848, 37.8182]]]}}, {"type": "Feature", "properties": {"code": "32330", "name": "영월군", "name_eng": "Yeongwol-gun", "base_year": "2013"}, "geometry": {"type": "Polygon", "coordinates": [[[128.2679, 37.4052], [128.2964, 37.3978], [128.3192, 37.3754], [128.326, 37.3149], [128.3335, 37.3011], [128.3602, 37.3057], [128.374, 37.2887], [128.3992, 37.2944], [128.4109, 37.3353], [128.4229, 37.3411], [128.45, 37.3344], [128.4655, 37.3206], [128.4669, 37.3037], [128.5005, 37.2993], [128.5187, 37.2838], [128.5598, 37.2853], [128.5771, 37.2662], [128.58, 37.2198], [128.6345, 37.1968], [128.6452, 37.1799], [128.6967, 37.1817], [128.7338, 37.1945], [128.7524, 37.2093], [128.7983, 37.1938], [128.8427, 37.1647], [128.8845, 37.1665], [128.9014, 37.1451], [128.8911, 37.1216], [128.8767, 37.1114], [128.891, 37.089], [128.8786, 37.0704], [128.8909, 37.0594], [128.912, 37.064], [128.8984, 37.042], [128.8489, 37.0493], [128.8292, 37.0752], [128.8108, 37.0747], [128.7873, 37.0849], [128.7543, 37.0547], [128.764, 37.0324], [128.7112, 37.0364], [128.6912, 37.0503], [128.6545, 37.0626], [128.6304, 37.0723], [128.5939, 37.0753], [128.5644, 37.0875], [128.5402, 37.0872], [128.517, 37.1005], [128.5146, 37.1108], [128.4889, 37.1173], [128.4737, 37.107], [128.4258, 37.1096], [128.3989, 37.1256], [128.4032, 37.144], [128.3392, 37.155], [128.3005, 37.1313], [128.2756, 37.1445], [128.2669, 37.1575], [128.2785, 37.1692], [128.328, 37.1941], [128.3356, 37.2127], [128.3176, 37.2206], [128.2712, 37.2052], [128.255, 37.225], [128.2307, 37.2251], [128.2034, 37.246], [128.2198, 37.2748], [128.2, 37.2934], [128.1722, 37.275], [128.15, 37.2717], [128.1186, 37.2797], [128.1163, 37.2992], [128.1166, 37.3135], [128.1338, 37.3264], [128.1756, 37.3196], [128.1885, 37.3385], [128.1817, 37.3849], [128.2115, 37.3921], [128.2389, 37.3854], [128.2571, 37.3906], [128.2679, 37.4052]]]}}, {"type": "Feature", "properties": {"code": "32320", "name": "횡성군", "name_eng": "Hoengseong-gun", "base_year": "2013"}, "geometry": {"type": "Polygon", "coordinates": [[[128.257, 37.6267], [128.2784, 37.6169], [128.2868, 37.5756], [128.297, 37.5662], [128.3043, 37.5351], [128.3014, 37.5088], [128.2788, 37.4982], [128.2691, 37.4843], [128.2478, 37.4745], [128.2498, 37.443], [128.2679, 37.4052], [128.2571, 37.3906], [128.2389, 37.3854], [128.2115, 37.3921], [128.1817, 37.3849], [128.1885, 37.3385], [128.1756, 37.3196], [128.1338, 37.3264], [128.1166, 37.3135], [128.1163, 37.2992], [128.0593, 37.3081], [128.0395, 37.3319], [128.0444, 37.3543], [128.0788, 37.3733], [128.0739, 37.3902], [128.0996, 37.4037], [128.0616, 37.4441], [128.0039, 37.4543], [127.9534, 37.452], [127.9351, 37.4875], [127.9123, 37.4843], [127.9071, 37.4712], [127.8773, 37.4629], [127.8682, 37.4444], [127.8687, 37.3966], [127.8506, 37.3973], [127.8435, 37.4296], [127.8236, 37.4416], [127.804, 37.4325], [127.7983, 37.4605], [127.7766, 37.4888], [127.7761, 37.5033], [127.8086, 37.5322], [127.8446, 37.5362], [127.8516, 37.5504], [127.8829, 37.565], [127.8946, 37.5936], [127.9538, 37.6094], [127.9727, 37.634], [128.0214, 37.6105], [128.0696, 37.6333], [128.0808, 37.6489], [128.1079, 37.6578], [128.121, 37.6759], [128.1481, 37.6703], [128.1927, 37.6436], [128.2069, 37.6477], [128.2287, 37.624], [128.257, 37.6267]]]}}, {"type": "Feature", "properties": {"code": "32310", "name": "홍천군", "name_eng": "Hongcheon-gun", "base_year": "2013"}, "geometry": {"type": "Polygon", "coordinates": [[[127.9956, 37.9399], [128.0316, 37.9412], [128.0419, 37.9246], [128.0822, 37.9004], [128.1355, 37.8911], [128.163, 37.8926], [128.1756, 37.8822], [128.172, 37.8486], [128.1828, 37.831], [128.2111, 37.8096], [128.2564, 37.8336], [128.2637, 37.8536], [128.2959, 37.8671], [128.3097, 37.8406], [128.3482, 37.8227], [128.3667, 37.8305], [128.3685, 37.8444], [128.4032, 37.8591], [128.4157, 37.8818], [128.438, 37.8613], [128.484, 37.8903], [128.5147, 37.8773], [128.5417, 37.8884], [128.5901, 37.8591], [128.5848, 37.8182], [128.5715, 37.804], [128.5447, 37.7953], [128.5447, 37.7856], [128.5233, 37.756], [128.5247, 37.7271], [128.4805, 37.7317], [128.4556, 37.7256], [128.4461, 37.6978], [128.4177, 37.6853], [128.3821, 37.6886], [128.3619, 37.6963], [128.3259, 37.6865], [128.3074, 37.6881], [128.2794, 37.6645], [128.2752, 37.6377], [128.257, 37.6267], [128.2287, 37.624], [128.2069, 37.6477], [128.1927, 37.6436], [128.1481, 37.6703], [128.121, 37.6759], [128.1079, 37.6578], [128.0808, 37.6489], [128.0696, 37.6333], [128.0214, 37.6105], [127.9727, 37.634], [127.9538, 37.6094], [127.8946, 37.5936], [127.8829, 37.565], [127.8516, 37.5504], [127.8151, 37.5618], [127.7949, 37.5825], [127.7684, 37.5802], [127.7561, 37.5895], [127.7103, 37.5836], [127.6987, 37.5976], [127.6555, 37.6195], [127.6297, 37.6398], [127.6045, 37.6485], [127.5817, 37.6303], [127.5611, 37.6257], [127.5392, 37.6402], [127.555, 37.6588], [127.5523, 37.6827], [127.562, 37.7257], [127.5913, 37.7227], [127.596, 37.7022], [127.6253, 37.6885], [127.6613, 37.6972], [127.6864, 37.698], [127.7125, 37.724], [127.7494, 37.7387], [127.8022, 37.7325], [127.8183, 37.7457], [127.8331, 37.737], [127.8594, 37.7652], [127.827, 37.7952], [127.8247, 37.843], [127.8504, 37.8327], [127.8717, 37.8337], [127.8787, 37.8537], [127.9102, 37.8526], [127.9336, 37.8238], [127.9471, 37.8357], [127.9577, 37.8683], [127.9753, 37.8799], [127.973, 37.8959], [127.9945, 37.9274], [127.9956, 37.9399]]]}}, {"type": "Feature", "properties": {"code": "32070", "name": "삼척시", "name_eng": "Samcheok-si", "base_year": "2013"}, "geometry": {"type": "Polygon", "coordinates": [[[129.3664, 37.1435], [129.3422, 37.1425], [129.3063, 37.1255], [129.2968, 37.1115], [129.2743, 37.1141], [129.2279, 37.0705], [129.235, 37.0417], [129.1877, 37.0392], [129.1687, 37.0666], [129.1575, 37.0671], [129.1211, 37.0901], [129.0981, 37.0976], [129.0899, 37.1114], [129.0979, 37.1356], [129.075, 37.1666], [129.0296, 37.1721], [129.0002, 37.1994], [128.9977, 37.2303], [129.0124, 37.2517], [129.0163, 37.2723], [129.0061, 37.2854], [129.0207, 37.3004], [129.0001, 37.3167], [129.0136, 37.3317], [128.9945, 37.3404], [128.9656, 37.3266], [128.9462, 37.3035], [128.9434, 37.2784], [128.9332, 37.2606], [128.937, 37.2422], [128.9199, 37.237], [128.9104, 37.2135], [128.897, 37.2505], [128.8822, 37.262], [128.8822, 37.2772], [128.8621, 37.2952], [128.8758, 37.3194], [128.869, 37.3362], [128.8481, 37.3368], [128.8602, 37.3781], [128.8711, 37.3955], [128.8979, 37.4065], [128.9001, 37.427], [128.9399, 37.448], [128.9599, 37.4439], [128.9955, 37.4278], [129.0112, 37.4316], [129.0463, 37.4529], [129.0771, 37.4533], [129.098, 37.4605], [129.1371, 37.4503], [129.1623, 37.4739], [129.19, 37.453], [129.2002, 37.4131], [129.2529, 37.3782], [129.2535, 37.3606], [129.2696, 37.3405], [129.2721, 37.3198], [129.3046, 37.3011], [129.3032, 37.2903], [129.3315, 37.2775], [129.3294, 37.2629], [129.3592, 37.2326], [129.3436, 37.2228], [129.3503, 37.2093], [129.344, 37.1749], [129.3664, 37.1435]]]}}, {"type": "Feature", "properties": {"code": "32060", "name": "속초시", "name_eng": "Sokcho-si", "base_year": "2013"}, "geometry": {"type": "Polygon", "coordinates": [[[128.4441, 38.1996], [128.4888, 38.1865], [128.503, 38.2004], [128.5355, 38.2132], [128.5765, 38.2192], [128.5871, 38.2284], [128.5993, 38.1957], [128.6115, 38.1809], [128.6113, 38.1583], [128.5729, 38.158], [128.5617, 38.1464], [128.5368, 38.1456], [128.532, 38.1341], [128.4941, 38.1353], [128.4676, 38.1167], [128.4673, 38.1351], [128.4445, 38.1484], [128.4221, 38.1748], [128.4441, 38.1996]]]}}, {"type": "Feature", "properties": {"code": "32050", "name": "태백시", "name_eng": "Taebaek-si", "base_year": "2013"}, "geometry": {"type": "Polygon", "coordinates": [[[129.0981, 37.0976], [129.0787, 37.0902], [129.0671, 37.0649], [128.9853, 37.0815], [128.9626, 37.0746], [128.9469, 37.0922], [128.9246, 37.0892], [128.912, 37.064], [128.8909, 37.0594], [128.8786, 37.0704], [128.891, 37.089], [128.8767, 37.1114], [128.8911, 37.1216], [128.9014, 37.1451], [128.9199, 37.1584], [128.9104, 37.2135], [128.9199, 37.237], [128.937, 37.2422], [128.9332, 37.2606], [128.9434, 37.2784], [128.9462, 37.3035], [128.9656, 37.3266], [128.9945, 37.3404], [129.0136, 37.3317], [129.0001, 37.3167], [129.0207, 37.3004], [129.0061, 37.2854], [129.0163, 37.2723], [129.0124, 37.2517], [128.9977, 37.2303], [129.0002, 37.1994], [129.0296, 37.1721], [129.075, 37.1666], [129.0979, 37.1356], [129.0899, 37.1114], [129.0981, 37.0976]]]}}, {"type": "Feature", "properties": {"code": "32040", "name": "동해시", "name_eng": "Donghae-si", "base_year": "2013"}, "geometry": {"type": "Polygon", "coordinates": [[[129.0753, 37.6033], [129.1196, 37.5735], [129.1242, 37.5545], [129.1152, 37.5367], [129.1246, 37.518], [129.1623, 37.4739], [129.1371, 37.4503], [129.098, 37.4605], [129.0771, 37.4533], [129.0463, 37.4529], [129.0112, 37.4316], [128.9955, 37.4278], [128.9599, 37.4439], [128.9901, 37.4722], [128.9889, 37.4901], [128.9644, 37.5102], [128.9754, 37.5312], [129.0008, 37.54], [129.0204, 37.5355], [129.0403, 37.5467], [129.053, 37.5732], [129.0753, 37.6033]]]}}, {"type": "Feature", "properties": {"code": "32030", "name": "강릉시", "name_eng": "Gangneung-si", "base_year": "2013"}, "geometry": {"type": "Polygon", "coordinates": [[[129.0753, 37.6033], [129.053, 37.5732], [129.0403, 37.5467], [129.0204, 37.5355], [129.0008, 37.54], [128.9754, 37.5312], [128.9614, 37.5431], [128.9413, 37.5345], [128.9079, 37.5497], [128.8987, 37.5839], [128.8763, 37.5868], [128.8609, 37.5576], [128.8626, 37.5411], [128.8502, 37.5122], [128.8166, 37.5035], [128.7996, 37.5158], [128.8044, 37.5289], [128.7832, 37.5406], [128.7478, 37.5438], [128.7068, 37.5326], [128.6763, 37.5531], [128.6863, 37.5891], [128.7142, 37.5858], [128.7198, 37.6009], [128.7388, 37.6072], [128.7308, 37.6334], [128.7356, 37.6512], [128.7669, 37.669], [128.7444, 37.7388], [128.7268, 37.7463], [128.7101, 37.766], [128.6792, 37.7705], [128.6039, 37.7672], [128.6022, 37.803], [128.5848, 37.8182], [128.5901, 37.8591], [128.6217, 37.8691], [128.6505, 37.8881], [128.6788, 37.8872], [128.7486, 37.906], [128.8052, 37.9101], [128.8123, 37.9156], [128.8371, 37.8952], [128.8327, 37.8819], [128.88, 37.8366], [128.8816, 37.8269], [128.9899, 37.737], [129.0161, 37.7058], [129.0588, 37.673], [129.0595, 37.6581], [129.0466, 37.6404], [129.0566, 37.6186], [129.0753, 37.6033]]]}}, {"type": "Feature", "properties": {"code": "32020", "name": "원주시", "name_eng": "Wonju-si", "base_year": "2013"}, "geometry": {"type": "Polygon", "coordinates": [[[127.804, 37.4325], [127.8236, 37.4416], [127.8435, 37.4296], [127.8506, 37.3973], [127.8687, 37.3966], [127.8682, 37.4444], [127.8773, 37.4629], [127.9071, 37.4712], [127.9123, 37.4843], [127.9351, 37.4875], [127.9534, 37.452], [128.0039, 37.4543], [128.0616, 37.4441], [128.0996, 37.4037], [128.0739, 37.3902], [128.0788, 37.3733], [128.0444, 37.3543], [128.0395, 37.3319], [128.0593, 37.3081], [128.1163, 37.2992], [128.1186, 37.2797], [128.15, 37.2717], [128.1722, 37.275], [128.2, 37.2934], [128.2198, 37.2748], [128.2034, 37.246], [128.1571, 37.2127], [128.1275, 37.2184], [128.1138, 37.205], [128.081, 37.1912], [128.0417, 37.186], [128.032, 37.1993], [128.0414, 37.2125], [128.0218, 37.2307], [128.0212, 37.2416], [127.9872, 37.2553], [127.9501, 37.244], [127.9235, 37.2229], [127.9391, 37.1856], [127.9284, 37.1623], [127.9106, 37.1644], [127.9041, 37.1491], [127.8747, 37.1615], [127.8639, 37.1538], [127.7914, 37.1417], [127.77, 37.1545], [127.7561, 37.1733], [127.7501, 37.2138], [127.751, 37.2446], [127.7605, 37.2552], [127.757, 37.295], [127.7707, 37.305], [127.7619, 37.3272], [127.7617, 37.3642], [127.7795, 37.3684], [127.804, 37.4325]]]}}, {"type": "Feature", "properties": {"code": "32010", "name": "춘천시", "name_eng": "Chuncheon-si", "base_year": "2013"}, "geometry": {"type": "Polygon", "coordinates": [[[127.9058, 38.0482], [127.9099, 38.0227], [127.9385, 38.0116], [127.9569, 38.037], [127.988, 38.0247], [127.9861, 38.0106], [128.0314, 38.0118], [128.0211, 37.9979], [127.9854, 37.9878], [127.9795, 37.9544], [127.9956, 37.9399], [127.9945, 37.9274], [127.973, 37.8959], [127.9753, 37.8799], [127.9577, 37.8683], [127.9471, 37.8357], [127.9336, 37.8238], [127.9102, 37.8526], [127.8787, 37.8537], [127.8717, 37.8337], [127.8504, 37.8327], [127.8247, 37.843], [127.827, 37.7952], [127.8594, 37.7652], [127.8331, 37.737], [127.8183, 37.7457], [127.8022, 37.7325], [127.7494, 37.7387], [127.7125, 37.724], [127.6864, 37.698], [127.6613, 37.6972], [127.6253, 37.6885], [127.596, 37.7022], [127.5913, 37.7227], [127.562, 37.7257], [127.543, 37.7163], [127.5098, 37.7279], [127.5467, 37.7575], [127.5237, 37.7886], [127.5379, 37.8063], [127.5278, 37.8206], [127.5347, 37.8391], [127.5646, 37.8527], [127.5865, 37.873], [127.6033, 37.8719], [127.6199, 37.9038], [127.6159, 37.9366], [127.6052, 37.9523], [127.5465, 37.9654], [127.5419, 37.9984], [127.5465, 38.0168], [127.5657, 38.0192], [127.5808, 38.0371], [127.5698, 38.0816], [127.5998, 38.0777], [127.6284, 38.048], [127.6548, 38.0507], [127.6546, 38.0216], [127.6793, 38.0335], [127.7022, 38.0354], [127.7154, 38.0215], [127.7404, 38.0359], [127.7719, 38.0245], [127.7961, 37.9904], [127.8293, 37.998], [127.8598, 38.0156], [127.8552, 38.0485], [127.9058, 38.0482]]]}}]}